[{"OBJECT_NAME":"EXCITE","OBJECT_ID":"2018-099BP","EPOCH":"2026-03-09T16:45:15.060672","MEAN_MOTION":15.06036758,"ECCENTRICITY":0.0017626,"INCLINATION":97.4107,"RA_OF_ASC_NODE":111.3606,"ARG_OF_PERICENTER":337.4818,"MEAN_ANOMALY":22.5634,"EPHEMERIS_TYPE":0,"CLASSIFICATION_TYPE":"U","NORAD_CAT_ID":43819,"ELEMENT_SET_NO":999,"REV_AT_EPOCH":39677,"BSTAR":0.00019631388,"MEAN_MOTION_DOT":2.813e-5,"MEAN_MOTION_DDOT":0},{"OBJECT_NAME":"STARLINK-4719","OBJECT_ID":"2022-111B","EPOCH":"2026-03-09T20:43:05.634624","MEAN_MOTION":15.08845552,"ECCENTRICITY":0.00012818,"INCLINATION":53.2162,"RA_OF_ASC_NODE":283.2276,"ARG_OF_PERICENTER":98.5226,"MEAN_ANOMALY":261.5912,"EPHEMERIS_TYPE":0,"CLASSIFICATION_TYPE":"U","NORAD_CAT_ID":53774,"ELEMENT_SET_NO":999,"REV_AT_EPOCH":19373,"BSTAR":8.1658288e-5,"MEAN_MOTION_DOT":1.012e-5,"MEAN_MOTION_DDOT":0}]
