EXCITE                  
1 43819U 18099BP  26068.69809098  .00002813  00000+0  19631-3 0  9999
2 43819  97.4107 111.3606 0017626 337.4818  22.5634 15.06036758396774
STARLINK-4719           
1 53774U 22111B   26068.86325966  .00001012  00000+0  81658-4 0  9995
2 53774  53.2162 283.2276 0001282  98.5226 261.5912 15.08845552193734
